OBJECT_NAME,OBJECT_ID,EPOCH,MEAN_MOTION,ECCENTRICITY,INCLINATION,RA_OF_ASC_NODE,ARG_OF_PERICENTER,MEAN_ANOMALY,EPHEMERIS_TYPE,CLASSIFICATION_TYPE,NORAD_CAT_ID,ELEMENT_SET_NO,REV_AT_EPOCH,BSTAR,MEAN_MOTION_DOT,MEAN_MOTION_DDOT
BEIDOU-3S IGSO-1S (C31),2015-019A,2026-07-02T19:12:21.705408,1.00680073,.00768606,49.1798,295.2769,219.1125,144.2493,0,U,40549,999,4123,0,-.19E-5,0
GPS BIIF-10 (PRN 08),2015-033A,2026-07-17T15:15:09.486144,2.00554676,.01153915,53.9594,265.8297,30.2922,330.4457,0,U,40730,999,8060,0,-.28E-6,0
BEIDOU-3S M2S (C58),2015-037A,2026-07-17T22:18:31.851648,1.86231855,.00094922,54.8417,300.9878,256.6090,103.3218,0,U,40748,999,7469,0,-.86E-6,0
BEIDOU-3S M1S (C57),2015-037B,2026-07-15T23:39:18.286848,1.86254808,.00027291,54.8399,301.0416,63.0955,296.9663,0,U,40749,999,7466,0,-.72E-6,0
GSAT0206 (GALILEO 10),2015-045B,2026-07-16T18:52:25.755744,1.70473544,.0002263,54.9385,220.7865,327.7315,32.3020,0,U,40890,999,6754,0,.48E-6,0
BEIDOU-3S IGSO-2S (C56),2015-053A,2026-07-17T15:25:26.719968,1.00252524,.0066282,49.1745,258.4175,193.2835,168.3012,0,U,40938,999,3966,0,-.104E-5,0
GPS BIIF-11 (PRN 10),2015-062A,2026-07-17T16:33:55.989504,2.00566982,.01129498,56.9800,29.6369,230.8715,128.1552,0,U,41019,999,7844,0,-.82E-6,0
GSAT-15 (GAGAN/PRN 139),2015-065A,2026-07-17T22:16:17.537664,1.00272478,.00034951,0.1106,263.8532,175.2653,284.1931,0,U,41028,999,3910,0,-.267E-5,0
GSAT0209 (GALILEO 12),2015-079A,2026-07-16T22:54:53.934624,1.70473553,.0004723,55.8441,100.4450,356.6958,3.3383,0,U,41174,999,6528,0,-.27E-6,0
GSAT0208 (GALILEO 11),2015-079B,2026-07-14T19:53:24.793152,1.70473443,.00043604,55.8401,100.5005,357.6027,2.4215,0,U,41175,999,6566,0,-.28E-6,0
IRNSS-1E,2016-003A,2026-07-17T23:03:20.288736,1.00276538,.00192623,33.2985,59.3031,176.2822,157.8132,0,U,41241,999,3838,0,-.316E-5,0
GPS BIIF-12 (PRN 32),2016-007A,2026-07-17T18:45:18.355680,2.00575307,.00966316,55.5427,88.2463,247.5999,111.4284,0,U,41328,999,7645,0,-.31E-6,0
COSMOS 2514 (751),2016-008A,2026-07-17T18:53:25.007136,2.13102583,.0012397,65.0014,311.9564,201.4816,158.4874,0,U,41330,999,8127,0,-.69E-6,0
BEIDOU-2 IGSO-6 (C13),2016-021A,2026-06-26T02:38:38.671584,1.00258926,.0057558,60.2385,37.9495,231.0163,137.2672,0,U,41434,999,3757,0,-.145E-5,0
IRNSS-1G,2016-027A,2026-07-17T18:33:51.880896,1.00269558,.00059498,5.2690,96.7672,12.2468,234.7056,0,U,41469,999,3748,0,-.345E-5,0
GSAT0211 (GALILEO 14),2016-030A,2026-07-16T17:05:27.607776,1.70473723,.00034382,55.0897,220.8821,318.8981,41.1241,0,U,41549,999,6317,0,.49E-6,0
GSAT0210 (GALILEO 13),2016-030B,2026-07-16T23:15:53.165376,1.70473885,.00047215,55.0882,220.8733,246.2569,113.7400,0,U,41550,999,6317,0,.48E-6,0
BEIDOU-2 G7 (C03),2016-037A,2026-07-17T22:21:09.571392,1.00272060,.00059145,1.7947,69.5210,0.0819,311.9832,0,U,41586,999,719,0,-.363E-5,0
EUTELSAT 117 WEST B (WAAS/PRN 131),2016-038B,2026-07-17T14:25:40.287936,1.00273199,.00002529,0.0089,197.1371,310.6381,247.0771,0,U,41589,999,3696,0,-.21E-6,0
GSAT0207 (GALILEO 15),2016-069A,2026-07-15T11:43:03.764064,1.70473446,.00045678,55.5148,100.3030,339.1852,20.8267,0,U,41859,999,5988,0,-.27E-6,0
GSAT0212 (GALILEO 16),2016-069B,2026-07-14T18:07:16.719168,1.70473579,.00043837,55.5126,100.3182,15.0007,345.0382,0,U,41860,999,6012,0,-.28E-6,0
GSAT0213 (GALILEO 17),2016-069C,2026-07-13T08:41:54.440160,1.70474037,.00041264,55.5134,100.3648,318.6741,41.3115,0,U,41861,999,5996,0,-.31E-6,0
GSAT0214 (GALILEO 18),2016-069D,2026-07-14T02:17:14.544672,1.70473685,.00032961,55.5122,100.3371,333.1197,26.8847,0,U,41862,999,6010,0,-.3E-6,0
SES-15 (WAAS/PRN 133),2017-026A,2026-07-17T11:24:38.573280,1.00278439,.0000846,0.0275,322.3958,173.7365,201.1742,0,U,42709,999,773,0,.49E-6,0
QZS-2 (QZSS/PRN 194),2017-028A,2026-07-17T10:34:03.413856,1.00276175,.0757243,39.3835,242.7078,269.6258,83.8926,0,U,42738,999,793,0,-.149E-5,0
QZS-3 (QZSS/PRN 199),2017-048A,2026-07-17T22:25:54.115968,1.00271024,.00026381,0.0615,211.7526,274.7107,272.7958,0,U,42917,999,3256,0,-.357E-5,0
COSMOS 2522 (752),2017-055A,2026-07-17T14:59:35.069280,2.13101752,.00109068,64.0808,190.8482,240.7445,119.1426,0,U,42939,999,6862,0,.57E-6,0
QZS-4 (QZSS/PRN 195),2017-062A,2026-07-17T17:23:47.362272,1.00289834,.07471687,40.0900,343.0956,268.6307,83.9887,0,U,42965,999,3211,0,-.356E-5,0
BEIDOU-3 M1 (C19),2017-069A,2026-07-15T01:18:53.436096,1.86230827,.00092673,56.7163,62.1672,328.5335,31.4861,0,U,43001,999,5912,0,-.4E-6,0
BEIDOU-3 M2 (C20),2017-069B,2026-07-17T03:23:50.222400,1.86231037,.00058447,56.7180,62.1334,63.7447,296.3868,0,U,43002,999,5915,0,-.54E-6,0
GSAT0215 (GALILEO 19),2017-079A,2026-07-15T04:06:51.886368,1.70474281,.00038313,55.0676,220.7362,269.4103,90.6058,0,U,43055,999,5346,0,.59E-6,0
